{
  "type": "FeatureCollection",
  "features": [
    {
      "type": "Feature",
      "properties": {
        "norad_id": 43567,
        "name": "GSAT0220 (GALILEO 24)",
        "group": "gnss",
        "lat": 54.79711022119257,
        "lon": 100.65252051478278,
        "alt_km": 23233.627415895746,
        "timestamp": "2025-12-20T09:36:01.888399+00:00",
        "meta_object_name": "GSAT0220 (GALILEO 24)",
        "meta_object_id": "2018-060D",
        "meta_epoch": "2025-12-17T07:09:30.654144",
        "meta_mean_motion": 1.70475982,
        "meta_eccentricity": 0.00060597,
        "meta_inclination": 57.2291,
        "meta_ra_of_asc_node": 346.699,
        "meta_arg_of_pericenter": 286.0855,
        "meta_mean_anomaly": 73.8638,
        "meta_ephemeris_type": 0,
        "meta_classification_type": "U",
        "meta_norad_cat_id": 43567,
        "meta_element_set_no": 999,
        "meta_rev_at_epoch": 4607,
        "meta_bstar": 0,
        "meta_mean_motion_dot": -7.8e-07,
        "meta_mean_motion_ddot": 0,
        "tle_line1": "1 43567U 18060D   25351.29827146 -.00000078  00000+0  00000+0 0  9999",
        "tle_line2": "2 43567  57.2291 346.6990 0006059 286.0855  73.8638  1.70475982 46079"
      },
      "geometry": {
        "type": "Point",
        "coordinates": [
          100.65252051478278,
          54.79711022119257
        ]
      }
    },
    {
      "type": "Feature",
      "properties": {
        "norad_id": 43581,
        "name": "BEIDOU-3 M5 (C23)",
        "group": "gnss",
        "lat": 47.94350018320104,
        "lon": -118.12836802815477,
        "alt_km": 21520.252296566065,
        "timestamp": "2025-12-20T09:36:01.888412+00:00",
        "meta_object_name": "BEIDOU-3 M5 (C23)",
        "meta_object_id": "2018-062A",
        "meta_epoch": "2025-12-19T18:20:03.145056",
        "meta_mean_motion": 1.86228947,
        "meta_eccentricity": 0.0001999,
        "meta_inclination": 54.0898,
        "meta_ra_of_asc_node": 188.4043,
        "meta_arg_of_pericenter": 0.4472,
        "meta_mean_anomaly": 359.6122,
        "meta_ephemeris_type": 0,
        "meta_classification_type": "U",
        "meta_norad_cat_id": 43581,
        "meta_element_set_no": 999,
        "meta_rev_at_epoch": 5029,
        "meta_bstar": 0,
        "meta_mean_motion_dot": 1e-06,
        "meta_mean_motion_ddot": 0,
        "tle_line1": "1 43581U 18062A   25353.76392529  .00000100  00000+0  00000+0 0  9998",
        "tle_line2": "2 43581  54.0898 188.4043 0001999   0.4472 359.6122  1.86228947 50291"
      },
      "geometry": {
        "type": "Point",
        "coordinates": [
          -118.12836802815477,
          47.94350018320104
        ]
      }
    },
    {
      "type": "Feature",
      "properties": {
        "norad_id": 43582,
        "name": "BEIDOU-3 M6 (C24)",
        "group": "gnss",
        "lat": 17.25816539586768,
        "lon": -4.640695670913955,
        "alt_km": 21533.81940322393,
        "timestamp": "2025-12-20T09:36:01.888425+00:00",
        "meta_object_name": "BEIDOU-3 M6 (C24)",
        "meta_object_id": "2018-062B",
        "meta_epoch": "2025-12-19T02:09:37.044576",
        "meta_mean_motion": 1.86229981,
        "meta_eccentricity": 0.0007838,
        "meta_inclination": 54.0893,
        "meta_ra_of_asc_node": 188.4162,
        "meta_arg_of_pericenter": 47.7681,
        "meta_mean_anomaly": 312.3611,
        "meta_ephemeris_type": 0,
        "meta_classification_type": "U",
        "meta_norad_cat_id": 43582,
        "meta_element_set_no": 999,
        "meta_rev_at_epoch": 5028,
        "meta_bstar": 0,
        "meta_mean_motion_dot": 1.04e-06,
        "meta_mean_motion_ddot": 0,
        "tle_line1": "1 43582U 18062B   25353.09001209  .00000104  00000+0  00000+0 0  9991",
        "tle_line2": "2 43582  54.0893 188.4162 0007838  47.7681 312.3611  1.86229981 50280"
      },
      "geometry": {
        "type": "Point",
        "coordinates": [
          -4.640695670913955,
          17.25816539586768
        ]
      }
    },
    {
      "type": "Feature",
      "properties": {
        "norad_id": 43602,
        "name": "BEIDOU-3 M12 (C26)",
        "group": "gnss",
        "lat": -16.163653778025004,
        "lon": 19.197480579855927,
        "alt_km": 21554.690942330897,
        "timestamp": "2025-12-20T09:36:01.888441+00:00",
        "meta_object_name": "BEIDOU-3 M12 (C26)",
        "meta_object_id": "2018-067A",
        "meta_epoch": "2025-12-19T13:33:24.239232",
        "meta_mean_motion": 1.86227856,
        "meta_eccentricity": 0.00092481,
        "meta_inclination": 54.1835,
        "meta_ra_of_asc_node": 187.1314,
        "meta_arg_of_pericenter": 41.3287,
        "meta_mean_anomaly": 318.7989,
        "meta_ephemeris_type": 0,
        "meta_classification_type": "U",
        "meta_norad_cat_id": 43602,
        "meta_element_set_no": 999,
        "meta_rev_at_epoch": 4977,
        "meta_bstar": 0,
        "meta_mean_motion_dot": 1.01e-06,
        "meta_mean_motion_ddot": 0,
        "tle_line1": "1 43602U 18067A   25353.56486388  .00000101  00000+0  00000+0 0  9993",
        "tle_line2": "2 43602  54.1835 187.1314 0009248  41.3287 318.7989  1.86227856 49773"
      },
      "geometry": {
        "type": "Point",
        "coordinates": [
          19.197480579855927,
          -16.163653778025004
        ]
      }
    },
    {
      "type": "Feature",
      "properties": {
        "norad_id": 43603,
        "name": "BEIDOU-3 M11 (C25)",
        "group": "gnss",
        "lat": 49.66326064395476,
        "lon": -51.25315399807116,
        "alt_km": 21517.855619389768,
        "timestamp": "2025-12-20T09:36:01.888460+00:00",
        "meta_object_name": "BEIDOU-3 M11 (C25)",
        "meta_object_id": "2018-067B",
        "meta_epoch": "2025-12-19T03:53:54.353760",
        "meta_mean_motion": 1.86227328,
        "meta_eccentricity": 0.0005641,
        "meta_inclination": 54.1805,
        "meta_ra_of_asc_node": 187.1091,
        "meta_arg_of_pericenter": 36.9516,
        "meta_mean_anomaly": 323.1468,
        "meta_ephemeris_type": 0,
        "meta_classification_type": "U",
        "meta_norad_cat_id": 43603,
        "meta_element_set_no": 999,
        "meta_rev_at_epoch": 4979,
        "meta_bstar": 0,
        "meta_mean_motion_dot": 1.03e-06,
        "meta_mean_motion_ddot": 0,
        "tle_line1": "1 43603U 18067B   25353.16243465  .00000103  00000+0  00000+0 0  9999",
        "tle_line2": "2 43603  54.1805 187.1091 0005641  36.9516 323.1468  1.86227328 49799"
      },
      "geometry": {
        "type": "Point",
        "coordinates": [
          -51.25315399807116,
          49.66326064395476
        ]
      }
    },
    {
      "type": "Feature",
      "properties": {
        "norad_id": 43622,
        "name": "BEIDOU-3 M13 (C32)",
        "group": "gnss",
        "lat": 33.249618352311884,
        "lon": -137.14529699772484,
        "alt_km": 21539.964062566207,
        "timestamp": "2025-12-20T09:36:01.888471+00:00",
        "meta_object_name": "BEIDOU-3 M13 (C32)",
        "meta_object_id": "2018-072A",
        "meta_epoch": "2025-12-19T15:44:25.442592",
        "meta_mean_motion": 1.86231092,
        "meta_eccentricity": 0.0006094,
        "meta_inclination": 56.4653,
        "meta_ra_of_asc_node": 68.5911,
        "meta_arg_of_pericenter": 298.8206,
        "meta_mean_anomaly": 61.1557,
        "meta_ephemeris_type": 0,
        "meta_classification_type": "U",
        "meta_norad_cat_id": 43622,
        "meta_element_set_no": 999,
        "meta_rev_at_epoch": 4931,
        "meta_bstar": 0,
        "meta_mean_motion_dot": -5.1e-07,
        "meta_mean_motion_ddot": 0,
        "tle_line1": "1 43622U 18072A   25353.65585003 -.00000051  00000+0  00000+0 0  9990",
        "tle_line2": "2 43622  56.4653  68.5911 0006094 298.8206  61.1557  1.86231092 49316"
      },
      "geometry": {
        "type": "Point",
        "coordinates": [
          -137.14529699772484,
          33.249618352311884
        ]
      }
    },
    {
      "type": "Feature",
      "properties": {
        "norad_id": 43623,
        "name": "BEIDOU-3 M14 (C33)",
        "group": "gnss",
        "lat": -39.07085623774698,
        "lon": -78.90660271046099,
        "alt_km": 21534.45171159071,
        "timestamp": "2025-12-20T09:36:01.888482+00:00",
        "meta_object_name": "BEIDOU-3 M14 (C33)",
        "meta_object_id": "2018-072B",
        "meta_epoch": "2025-12-20T01:23:54.896928",
        "meta_mean_motion": 1.86231109,
        "meta_eccentricity": 0.0003452,
        "meta_inclination": 56.4671,
        "meta_ra_of_asc_node": 68.5717,
        "meta_arg_of_pericenter": 329.1519,
        "meta_mean_anomaly": 30.8675,
        "meta_ephemeris_type": 0,
        "meta_classification_type": "U",
        "meta_norad_cat_id": 43623,
        "meta_element_set_no": 999,
        "meta_rev_at_epoch": 4931,
        "meta_bstar": 0,
        "meta_mean_motion_dot": -4.7e-07,
        "meta_mean_motion_ddot": 0,
        "tle_line1": "1 43623U 18072B   25354.05827427 -.00000047  00000+0  00000+0 0  9990",
        "tle_line2": "2 43623  56.4671  68.5717 0003452 329.1519  30.8675  1.86231109 49314"
      },
      "geometry": {
        "type": "Point",
        "coordinates": [
          -78.90660271046099,
          -39.07085623774698
        ]
      }
    }
  ]
}